[
  {
    "COMMENT": "GENERATED VIA SPACETRACK.ORG API",
    "ORIGINATOR": "18 SPCS",
    "NORAD_CAT_ID": "46984",
    "OBJECT_NAME": "S6 MICHAEL FREILICH",
    "OBJECT_TYPE": "PAYLOAD",
    "CLASSIFICATION_TYPE": "U",
    "INTLDES": "20086A",
    "EPOCH": "2023-05-22 20:05:13",
    "EPOCH_MICROSECONDS": "920288",
    "MEAN_MOTION": "12.80931552",
    "ECCENTRICITY": "0.0007924",
    "INCLINATION": "66.041",
    "RA_OF_ASC_NODE": "304.1077",
    "ARG_OF_PERICENTER": "270.1373",
    "MEAN_ANOMALY": "89.8735",
    "EPHEMERIS_TYPE": "0",
    "ELEMENT_SET_NO": "999",
    "REV_AT_EPOCH": "11670",
    "BSTAR": "0.0000055172",
    "MEAN_MOTION_DOT": "-0.0000006",
    "MEAN_MOTION_DDOT": "0",
    "FILE": "3914964",
    "TLE_LINE0": "0 S6 MICHAEL FREILICH",
    "TLE_LINE1": "1 46984U 20086A   23142.83696667 -.00000060  00000-0  55172-5 0  9992",
    "TLE_LINE2": "2 46984  66.0410 304.1077 0007924 270.1373  89.8735 12.80931552116708",
    "OBJECT_ID": "2020-086A",
    "OBJECT_NUMBER": "46984",
    "SEMIMAJOR_AXIS": "7715.864",
    "PERIOD": "112.418",
    "APOGEE": "1343.843",
    "PERIGEE": "1331.615",
    "DECAYED": "0"
  },
  {
    "COMMENT": "GENERATED VIA SPACETRACK.ORG API",
    "ORIGINATOR": "18 SPCS",
    "NORAD_CAT_ID": "46984",
    "OBJECT_NAME": "S6 MICHAEL FREILICH",
    "OBJECT_TYPE": "PAYLOAD",
    "CLASSIFICATION_TYPE": "U",
    "INTLDES": "20086A",
    "EPOCH": "2023-05-23 18:34:22",
    "EPOCH_MICROSECONDS": "951200",
    "MEAN_MOTION": "12.80931569",
    "ECCENTRICITY": "0.000793",
    "INCLINATION": "66.0411",
    "RA_OF_ASC_NODE": "302.1616",
    "ARG_OF_PERICENTER": "270.0894",
    "MEAN_ANOMALY": "89.9213",
    "EPHEMERIS_TYPE": "0",
    "ELEMENT_SET_NO": "999",
    "REV_AT_EPOCH": "11682",
    "BSTAR": "0.000042819",
    "MEAN_MOTION_DOT": "-0.00000051",
    "MEAN_MOTION_DDOT": "0",
    "FILE": "3915766",
    "TLE_LINE0": "0 S6 MICHAEL FREILICH",
    "TLE_LINE1": "1 46984U 20086A   23143.77387675 -.00000051  00000-0  42819-4 0  9995",
    "TLE_LINE2": "2 46984  66.0411 302.1616 0007930 270.0894  89.9213 12.80931569116823",
    "OBJECT_ID": "2020-086A",
    "OBJECT_NUMBER": "46984",
    "SEMIMAJOR_AXIS": "7715.864",
    "PERIOD": "112.418",
    "APOGEE": "1343.848",
    "PERIGEE": "1331.610",
    "DECAYED": "0"
  },
  {
    "COMMENT": "GENERATED VIA SPACETRACK.ORG API",
    "ORIGINATOR": "18 SPCS",
    "NORAD_CAT_ID": "46984",
    "OBJECT_NAME": "S6 MICHAEL FREILICH",
    "OBJECT_TYPE": "PAYLOAD",
    "CLASSIFICATION_TYPE": "U",
    "INTLDES": "20086A",
    "EPOCH": "2023-05-23 20:26:48",
    "EPOCH_MICROSECONDS": "703776",
    "MEAN_MOTION": "12.80931576",
    "ECCENTRICITY": "0.0007929",
    "INCLINATION": "66.0411",
    "RA_OF_ASC_NODE": "301.9994",
    "ARG_OF_PERICENTER": "270.0903",
    "MEAN_ANOMALY": "89.9203",
    "EPHEMERIS_TYPE": "0",
    "ELEMENT_SET_NO": "999",
    "REV_AT_EPOCH": "11696",
    "BSTAR": "0.000047019",
    "MEAN_MOTION_DOT": "-0.0000005",
    "MEAN_MOTION_DDOT": "0",
    "FILE": "3916032",
    "TLE_LINE0": "0 S6 MICHAEL FREILICH",
    "TLE_LINE1": "1 46984U 20086A   23143.85195259 -.00000050  00000-0  47019-4 0  9995",
    "TLE_LINE2": "2 46984  66.0411 301.9994 0007929 270.0903  89.9203 12.80931576116960",
    "OBJECT_ID": "2020-086A",
    "OBJECT_NUMBER": "46984",
    "SEMIMAJOR_AXIS": "7715.864",
    "PERIOD": "112.418",
    "APOGEE": "1343.847",
    "PERIGEE": "1331.611",
    "DECAYED": "0"
  },
  {
    "COMMENT": "GENERATED VIA SPACETRACK.ORG API",
    "ORIGINATOR": "18 SPCS",
    "NORAD_CAT_ID": "46984",
    "OBJECT_NAME": "S6 MICHAEL FREILICH",
    "OBJECT_TYPE": "PAYLOAD",
    "CLASSIFICATION_TYPE": "U",
    "INTLDES": "20086A",
    "EPOCH": "2023-05-24 15:11:06",
    "EPOCH_MICROSECONDS": "227808",
    "MEAN_MOTION": "12.80931585",
    "ECCENTRICITY": "0.0007931",
    "INCLINATION": "66.0412",
    "RA_OF_ASC_NODE": "300.3777",
    "ARG_OF_PERICENTER": "270.0507",
    "MEAN_ANOMALY": "89.96",
    "EPHEMERIS_TYPE": "0",
    "ELEMENT_SET_NO": "999",
    "REV_AT_EPOCH": "11693",
    "BSTAR": "0.000049609",
    "MEAN_MOTION_DOT": "-0.0000005",
    "MEAN_MOTION_DDOT": "0",
    "FILE": "3916549",
    "TLE_LINE0": "0 S6 MICHAEL FREILICH",
    "TLE_LINE1": "1 46984U 20086A   23144.63271097 -.00000050  00000-0  49609-4 0  9994",
    "TLE_LINE2": "2 46984  66.0412 300.3777 0007931 270.0507  89.9600 12.80931585116934",
    "OBJECT_ID": "2020-086A",
    "OBJECT_NUMBER": "46984",
    "SEMIMAJOR_AXIS": "7715.864",
    "PERIOD": "112.418",
    "APOGEE": "1343.848",
    "PERIGEE": "1331.609",
    "DECAYED": "0"
  },
  {
    "COMMENT": "GENERATED VIA SPACETRACK.ORG API",
    "ORIGINATOR": "18 SPCS",
    "NORAD_CAT_ID": "46984",
    "OBJECT_NAME": "S6 MICHAEL FREILICH",
    "OBJECT_TYPE": "PAYLOAD",
    "CLASSIFICATION_TYPE": "U",
    "INTLDES": "20086A",
    "EPOCH": "2023-05-25 19:17:32",
    "EPOCH_MICROSECONDS": "615808",
    "MEAN_MOTION": "12.80928943",
    "ECCENTRICITY": "0.0007915",
    "INCLINATION": "66.0415",
    "RA_OF_ASC_NODE": "297.9451",
    "ARG_OF_PERICENTER": "270.1979",
    "MEAN_ANOMALY": "89.8129",
    "EPHEMERIS_TYPE": "0",
    "ELEMENT_SET_NO": "999",
    "REV_AT_EPOCH": "11708",
    "BSTAR": "0.000091059",
    "MEAN_MOTION_DOT": "-0.0000004",
    "MEAN_MOTION_DDOT": "0",
    "FILE": "3917122",
    "TLE_LINE0": "0 S6 MICHAEL FREILICH",
    "TLE_LINE1": "1 46984U 20086A   23145.80384972 -.00000040  00000-0  91059-4 0  9996",
    "TLE_LINE2": "2 46984  66.0415 297.9451 0007915 270.1979  89.8129 12.80928943117089",
    "OBJECT_ID": "2020-086A",
    "OBJECT_NUMBER": "46984",
    "SEMIMAJOR_AXIS": "7715.874",
    "PERIOD": "112.418",
    "APOGEE": "1343.847",
    "PERIGEE": "1331.632",
    "DECAYED": "0"
  },
  {
    "COMMENT": "GENERATED VIA SPACETRACK.ORG API",
    "ORIGINATOR": "18 SPCS",
    "NORAD_CAT_ID": "46984",
    "OBJECT_NAME": "S6 MICHAEL FREILICH",
    "OBJECT_TYPE": "PAYLOAD",
    "CLASSIFICATION_TYPE": "U",
    "INTLDES": "20086A",
    "EPOCH": "2023-05-25 19:17:32",
    "EPOCH_MICROSECONDS": "615808",
    "MEAN_MOTION": "12.80928943",
    "ECCENTRICITY": "0.0007915",
    "INCLINATION": "66.0415",
    "RA_OF_ASC_NODE": "297.9451",
    "ARG_OF_PERICENTER": "270.1979",
    "MEAN_ANOMALY": "89.8129",
    "EPHEMERIS_TYPE": "0",
    "ELEMENT_SET_NO": "999",
    "REV_AT_EPOCH": "11721",
    "BSTAR": "0.000091059",
    "MEAN_MOTION_DOT": "-0.0000004",
    "MEAN_MOTION_DDOT": "0",
    "FILE": "3917359",
    "TLE_LINE0": "0 S6 MICHAEL FREILICH",
    "TLE_LINE1": "1 46984U 20086A   23145.80384972 -.00000040  00000-0  91059-4 0  9996",
    "TLE_LINE2": "2 46984  66.0415 297.9451 0007915 270.1979  89.8129 12.80928943117214",
    "OBJECT_ID": "2020-086A",
    "OBJECT_NUMBER": "46984",
    "SEMIMAJOR_AXIS": "7715.874",
    "PERIOD": "112.418",
    "APOGEE": "1343.847",
    "PERIGEE": "1331.632",
    "DECAYED": "0"
  },
  {
    "COMMENT": "GENERATED VIA SPACETRACK.ORG API",
    "ORIGINATOR": "18 SPCS",
    "NORAD_CAT_ID": "46984",
    "OBJECT_NAME": "S6 MICHAEL FREILICH",
    "OBJECT_TYPE": "PAYLOAD",
    "CLASSIFICATION_TYPE": "U",
    "INTLDES": "20086A",
    "EPOCH": "2023-05-26 10:16:58",
    "EPOCH_MICROSECONDS": "742688",
    "MEAN_MOTION": "12.80928979",
    "ECCENTRICITY": "0.000792",
    "INCLINATION": "66.0415",
    "RA_OF_ASC_NODE": "296.6476",
    "ARG_OF_PERICENTER": "270.1424",
    "MEAN_ANOMALY": "89.8684",
    "EPHEMERIS_TYPE": "0",
    "ELEMENT_SET_NO": "999",
    "REV_AT_EPOCH": "11716",
    "BSTAR": "-0.000092287",
    "MEAN_MOTION_DOT": "-0.00000082",
    "MEAN_MOTION_DDOT": "0",
    "FILE": "3917630",
    "TLE_LINE0": "0 S6 MICHAEL FREILICH",
    "TLE_LINE1": "1 46984U 20086A   23146.42845767 -.00000082  00000-0 -92287-4 0  9990",
    "TLE_LINE2": "2 46984  66.0415 296.6476 0007920 270.1424  89.8684 12.80928979117167",
    "OBJECT_ID": "2020-086A",
    "OBJECT_NUMBER": "46984",
    "SEMIMAJOR_AXIS": "7715.874",
    "PERIOD": "112.418",
    "APOGEE": "1343.850",
    "PERIGEE": "1331.628",
    "DECAYED": "0"
  },
  {
    "COMMENT": "GENERATED VIA SPACETRACK.ORG API",
    "ORIGINATOR": "18 SPCS",
    "NORAD_CAT_ID": "46984",
    "OBJECT_NAME": "S6 MICHAEL FREILICH",
    "OBJECT_TYPE": "PAYLOAD",
    "CLASSIFICATION_TYPE": "U",
    "INTLDES": "20086A",
    "EPOCH": "2023-05-27 10:38:33",
    "EPOCH_MICROSECONDS": "663552",
    "MEAN_MOTION": "12.80929013",
    "ECCENTRICITY": "0.000796",
    "INCLINATION": "66.0402",
    "RA_OF_ASC_NODE": "294.5393",
    "ARG_OF_PERICENTER": "270.0256",
    "MEAN_ANOMALY": "89.9847",
    "EPHEMERIS_TYPE": "0",
    "ELEMENT_SET_NO": "999",
    "REV_AT_EPOCH": "11742",
    "BSTAR": "-0.00013741",
    "MEAN_MOTION_DOT": "-0.00000093",
    "MEAN_MOTION_DDOT": "0",
    "FILE": "3918396",
    "TLE_LINE0": "0 S6 MICHAEL FREILICH",
    "TLE_LINE1": "1 46984U 20086A   23147.44344518 -.00000093  00000-0 -13741-3 0  9990",
    "TLE_LINE2": "2 46984  66.0402 294.5393 0007960 270.0256  89.9847 12.80929013117425",
    "OBJECT_ID": "2020-086A",
    "OBJECT_NUMBER": "46984",
    "SEMIMAJOR_AXIS": "7715.874",
    "PERIOD": "112.418",
    "APOGEE": "1343.881",
    "PERIGEE": "1331.597",
    "DECAYED": "0"
  }
]